COMMENT,ORIGINATOR,NORAD_CAT_ID,OBJECT_NAME,OBJECT_TYPE,CLASSIFICATION_TYPE,INTLDES,EPOCH,EPOCH_MICROSECONDS,MEAN_MOTION,ECCENTRICITY,INCLINATION,RA_OF_ASC_NODE,ARG_OF_PERICENTER,MEAN_ANOMALY,EPHEMERIS_TYPE,ELEMENT_SET_NO,REV_AT_EPOCH,BSTAR,MEAN_MOTION_DOT,MEAN_MOTION_DDOT,FILE,TLE_LINE0,TLE_LINE1,TLE_LINE2,OBJECT_ID,OBJECT_NUMBER,SEMIMAJOR_AXIS,PERIOD,APOGEE,PERIGEE,DECAYED
GENERATED VIA SPACETRACK.ORG API,18 SPCS,26998,TIMED,PAYLOAD,U,01055B,7/5/24 19:52,641472,14.91513544,0.0002655,74.0691,223.8951,273.2333,86.8546,0,999,22474,0.00016878,0.00001653,0,4362408,0 TIMED,1 26998U 01055B   24187.82806298  .00001653  00000-0  16878-3 0  9998,2 26998  74.0691 223.8951 0002655 273.2333  86.8546 14.91513544224747,2001-055B,26998,6971.352,96.546,595.068,591.367,0
GENERATED VIA SPACETRACK.ORG API,18 SPCS,26998,TIMED,PAYLOAD,U,01055B,7/5/24 19:52,641472,14.91513544,0.0002655,74.0691,223.8951,273.2333,86.8546,0,999,22460,0.00016878,0.00001653,0,4362844,0 TIMED,1 26998U 01055B   24187.82806298  .00001653  00000-0  16878-3 0  9998,2 26998  74.0691 223.8951 0002655 273.2333  86.8546 14.91513544224602,2001-055B,26998,6971.352,96.546,595.068,591.367,0
GENERATED VIA SPACETRACK.ORG API,18 SPCS,26998,TIMED,PAYLOAD,U,01055B,7/6/24 13:34,127040,14.91514647,0.0002671,74.0691,222.4185,272.5771,87.5106,0,999,22471,0.00014087,0.00001373,0,4364218,0 TIMED,1 26998U 01055B   24188.56588110  .00001373  00000-0  14087-3 0  9999,2 26998  74.0691 222.4185 0002671 272.5771  87.5106 14.91514647224719,2001-055B,26998,6971.349,96.546,595.076,591.352,0
GENERATED VIA SPACETRACK.ORG API,18 SPCS,26998,TIMED,PAYLOAD,U,01055B,7/6/24 20:01,993888,14.91515968,0.0002672,74.0691,221.8815,272.25,87.8376,0,999,22489,0.00014757,0.0000144,0,4364268,0 TIMED,1 26998U 01055B   24188.83417817  .00001440  00000-0  14757-3 0  9993,2 26998  74.0691 221.8815 0002672 272.2500  87.8376 14.91515968224898,2001-055B,26998,6971.345,96.546,595.073,591.347,0
GENERATED VIA SPACETRACK.ORG API,18 SPCS,26998,TIMED,PAYLOAD,U,01055B,7/6/24 20:01,993888,14.91515968,0.0002672,74.0691,221.8815,272.25,87.8376,0,999,22475,0.00014757,0.0000144,0,4364786,0 TIMED,1 26998U 01055B   24188.83417817  .00001440  00000-0  14757-3 0  9993,2 26998  74.0691 221.8815 0002672 272.2500  87.8376 14.91515968224753,2001-055B,26998,6971.345,96.546,595.073,591.347,0
GENERATED VIA SPACETRACK.ORG API,18 SPCS,26998,TIMED,PAYLOAD,U,01055B,7/7/24 12:07,101824,14.91518528,0.0002685,74.069,220.5391,271.4076,88.6799,0,999,22485,0.00015063,0.00001471,0,4365919,0 TIMED,1 26998U 01055B   24189.50492016  .00001471  00000-0  15063-3 0  9997,2 26998  74.0690 220.5391 0002685 271.4076  88.6799 14.91518528224854,2001-055B,26998,6971.337,96.546,595.074,591.33,0
GENERATED VIA SPACETRACK.ORG API,18 SPCS,26998,TIMED,PAYLOAD,U,01055B,7/8/24 4:12,130272,14.91520589,0.0002688,74.0689,219.1967,270.4331,89.6543,0,999,22509,0.0001453,0.00001417,0,4366541,0 TIMED,1 26998U 01055B   24190.17566123  .00001417  00000-0  14530-3 0  9991,2 26998  74.0689 219.1967 0002688 270.4331  89.6543 14.91520589225096,2001-055B,26998,6971.331,96.546,595.069,591.322,0
GENERATED VIA SPACETRACK.ORG API,18 SPCS,26998,TIMED,PAYLOAD,U,01055B,7/8/24 12:15,116416,14.91522024,0.0002687,74.0689,218.5255,270.1051,89.9823,0,999,22500,0.00015113,0.00001476,0,4367778,0 TIMED,1 26998U 01055B   24190.51103144  .00001476  00000-0  15113-3 0  9992,2 26998  74.0689 218.5255 0002687 270.1051  89.9823 14.91522024225005,2001-055B,26998,6971.326,96.546,595.064,591.318,0
GENERATED VIA SPACETRACK.ORG API,18 SPCS,26998,TIMED,PAYLOAD,U,01055B,7/8/24 18:42,878720,14.91523302,0.0002686,74.0689,217.9886,269.8137,90.2738,0,999,22504,0.0001574,0.00001539,0,4368352,0 TIMED,1 26998U 01055B   24190.77932730  .00001539  00000-0  15740-3 0  9997,2 26998  74.0689 217.9886 0002686 269.8137  90.2738 14.91523302225041,2001-055B,26998,6971.322,96.546,595.06,591.315,0
GENERATED VIA SPACETRACK.ORG API,18 SPCS,26998,TIMED,PAYLOAD,U,01055B,7/9/24 4:21,35136,14.91523912,0.0002687,74.0689,217.1832,269.2826,90.8049,0,999,22524,0.00014522,0.00001417,0,4368437,0 TIMED,1 26998U 01055B   24191.18177124  .00001417  00000-0  14522-3 0  9993,2 26998  74.0689 217.1832 0002687 269.2826  90.8049 14.91523912225244,2001-055B,26998,6971.32,96.546,595.058,591.312,0
GENERATED VIA SPACETRACK.ORG API,18 SPCS,26998,TIMED,PAYLOAD,U,01055B,7/9/24 12:24,961664,14.91525133,0.000269,74.0689,216.512,269.0575,91.0299,0,999,22515,0.00014806,0.00001445,0,4369589,0 TIMED,1 26998U 01055B   24191.51714076  .00001445  00000-0  14806-3 0  9999,2 26998  74.0689 216.5120 0002690 269.0575  91.0299 14.91525133225157,2001-055B,26998,6971.316,96.545,595.057,591.306,0
GENERATED VIA SPACETRACK.ORG API,18 SPCS,26998,TIMED,PAYLOAD,U,01055B,7/10/24 4:30,756832,14.91527422,0.0002691,74.0688,215.1696,268.1933,91.8941,0,999,22539,0.00015065,0.00001471,0,4370286,0 TIMED,1 26998U 01055B   24192.18787913  .00001471  00000-0  15065-3 0  9990,2 26998  74.0688 215.1696 0002691 268.1933  91.8941 14.91527422225399,2001-055B,26998,6971.309,96.545,595.05,591.298,0
GENERATED VIA SPACETRACK.ORG API,18 SPCS,26998,TIMED,PAYLOAD,U,01055B,7/10/24 12:33,615968,14.91528603,0.0002696,74.0688,214.4984,267.9175,92.1699,0,999,22530,0.00015246,0.0000149,0,4371425,0 TIMED,1 26998U 01055B   24192.52324787  .00001490  00000-0  15246-3 0  9996,2 26998  74.0688 214.4984 0002696 267.9175  92.1699 14.91528603225308,2001-055B,26998,6971.306,96.545,595.05,591.291,0
GENERATED VIA SPACETRACK.ORG API,18 SPCS,26998,TIMED,PAYLOAD,U,01055B,7/11/24 4:39,284128,14.91530715,0.0002695,74.0687,213.156,266.995,93.0924,0,999,22554,0.00015136,0.00001479,0,4371993,0 TIMED,1 26998U 01055B   24193.19398477  .00001479  00000-0  15136-3 0  9992,2 26998  74.0687 213.1560 0002695 266.9950  93.0924 14.91530715225546,2001-055B,26998,6971.299,96.545,595.043,591.285,0
GENERATED VIA SPACETRACK.ORG API,18 SPCS,26998,TIMED,PAYLOAD,U,01055B,7/11/24 11:05,931520,14.91531538,0.0002698,74.0688,212.619,266.8311,93.2563,0,999,22544,0.00015112,0.00001476,0,4372493,0 TIMED,1 26998U 01055B   24193.46227930  .00001476  00000-0  15112-3 0  9998,2 26998  74.0688 212.6190 0002698 266.8311  93.2563 14.91531538225447,2001-055B,26998,6971.296,96.545,595.042,591.281,0
GENERATED VIA SPACETRACK.ORG API,18 SPCS,26998,TIMED,PAYLOAD,U,01055B,7/12/24 4:48,600608,14.91534864,0.0002703,74.0687,211.1423,265.8051,94.2822,0,999,22569,0.00016655,0.00001631,0,4373434,0 TIMED,1 26998U 01055B   24194.20008797  .00001631  00000-0  16655-3 0  9995,2 26998  74.0687 211.1423 0002703 265.8051  94.2822 14.91534864225697,2001-055B,26998,6971.286,96.545,595.035,591.267,0
GENERATED VIA SPACETRACK.ORG API,18 SPCS,26998,TIMED,PAYLOAD,U,01055B,7/12/24 12:51,329280,14.91536474,0.0002703,74.0687,210.471,265.2688,94.8185,0,999,22560,0.00017599,0.00001726,0,4374714,0 TIMED,1 26998U 01055B   24194.53545520  .00001726  00000-0  17599-3 0  9994,2 26998  74.0687 210.4710 0002703 265.2688  94.8185 14.91536474225606,2001-055B,26998,6971.281,96.545,595.03,591.262,0
GENERATED VIA SPACETRACK.ORG API,18 SPCS,26998,TIMED,PAYLOAD,U,01055B,7/13/24 4:56,728736,14.91538731,0.0002702,74.0687,209.1286,264.2936,95.7939,0,999,22584,0.00017697,0.00001736,0,4375385,0 TIMED,1 26998U 01055B   24195.20618899  .00001736  00000-0  17697-3 0  9999,2 26998  74.0687 209.1286 0002702 264.2936  95.7939 14.91538731225844,2001-055B,26998,6971.274,96.545,595.023,591.255,0
GENERATED VIA SPACETRACK.ORG API,18 SPCS,26998,TIMED,PAYLOAD,U,01055B,7/13/24 11:23,260352,14.91539908,0.0002707,74.0687,208.5916,263.9729,96.1145,0,999,22574,0.00018238,0.0000179,0,4376497,0 TIMED,1 26998U 01055B   24195.47448218  .00001790  00000-0  18238-3 0  9996,2 26998  74.0687 208.5916 0002707 263.9729  96.1145 14.91539908225748,2001-055B,26998,6971.27,96.545,595.022,591.248,0
GENERATED VIA SPACETRACK.ORG API,18 SPCS,26998,TIMED,PAYLOAD,U,01055B,7/13/24 17:49,766912,14.91540975,0.0002703,74.0687,208.0547,263.7247,96.3628,0,999,22578,0.00018477,0.00001814,0,4377096,0 TIMED,1 26998U 01055B   24195.74277508  .00001814  00000-0  18477-3 0  9990,2 26998  74.0687 208.0547 0002703 263.7247  96.3628 14.91540975225780,2001-055B,26998,6971.267,96.544,595.016,591.248,0
GENERATED VIA SPACETRACK.ORG API,18 SPCS,26998,TIMED,PAYLOAD,U,01055B,7/14/24 11:32,92128,14.91544508,0.0002701,74.0687,206.578,262.7161,97.3715,0,999,22603,0.00020384,0.00002006,0,4377856,0 TIMED,1 26998U 01055B   24196.48057977  .00002006  00000-0  20384-3 0  9992,2 26998  74.0687 206.5780 0002701 262.7161  97.3715 14.91544508226037,2001-055B,26998,6971.256,96.544,595.004,591.238,0
GENERATED VIA SPACETRACK.ORG API,18 SPCS,26998,TIMED,PAYLOAD,U,01055B,7/14/24 11:32,92128,14.91544508,0.0002701,74.0687,206.578,262.7161,97.3715,0,999,22589,0.00020384,0.00002006,0,4378423,0 TIMED,1 26998U 01055B   24196.48057977  .00002006  00000-0  20384-3 0  9992,2 26998  74.0687 206.5780 0002701 262.7161  97.3715 14.91544508225890,2001-055B,26998,6971.256,96.544,595.004,591.238,0
GENERATED VIA SPACETRACK.ORG API,18 SPCS,26998,TIMED,PAYLOAD,U,01055B,7/14/24 17:58,535616,14.91545609,0.0002701,74.0687,206.041,262.4522,97.6354,0,999,22593,0.00020586,0.00002026,0,4379045,0 TIMED,1 26998U 01055B   24196.74887194  .00002026  00000-0  20586-3 0  9999,2 26998  74.0687 206.0410 0002701 262.4522  97.6354 14.91545609225933,2001-055B,26998,6971.253,96.544,595,591.235,0
GENERATED VIA SPACETRACK.ORG API,18 SPCS,26998,TIMED,PAYLOAD,U,01055B,7/15/24 11:40,675072,14.91549163,0.0002697,74.0688,204.5643,261.4506,98.6371,0,999,22618,0.0002211,0.00002179,0,4379745,0 TIMED,1 26998U 01055B   24197.48667448  .00002179  00000-0  22110-3 0  9993,2 26998  74.0688 204.5643 0002697 261.4506  98.6371 14.91549163226187,2001-055B,26998,6971.241,96.544,594.987,591.226,0
